[{"OBJECT_NAME":"ONEWEB-0642","OBJECT_ID":"2023-029L","EPOCH":"2026-01-17T07:10:03.734976","MEAN_MOTION":13.19725353,"ECCENTRICITY":9.403e-5,"INCLINATION":87.923,"RA_OF_ASC_NODE":335.0078,"ARG_OF_PERICENTER":69.7331,"MEAN_ANOMALY":290.3903,"EPHEMERIS_TYPE":0,"CLASSIFICATION_TYPE":"U","NORAD_CAT_ID":55806,"ELEMENT_SET_NO":999,"REV_AT_EPOCH":13900,"BSTAR":0.000178936,"MEAN_MOTION_DOT":8.5e-7,"MEAN_MOTION_DDOT":0},{"OBJECT_NAME":"ONEWEB-0643","OBJECT_ID":"2023-029M","EPOCH":"2026-01-17T13:59:41.391744","MEAN_MOTION":13.14503622,"ECCENTRICITY":0.00010205,"INCLINATION":87.9022,"RA_OF_ASC_NODE":319.755,"ARG_OF_PERICENTER":82.0466,"MEAN_ANOMALY":278.078,"EPHEMERIS_TYPE":0,"CLASSIFICATION_TYPE":"U","NORAD_CAT_ID":55807,"ELEMENT_SET_NO":999,"REV_AT_EPOCH":13960,"BSTAR":0.0003061914,"MEAN_MOTION_DOT":1.26e-6,"MEAN_MOTION_DDOT":0},{"OBJECT_NAME":"ONEWEB-0644","OBJECT_ID":"2023-029N","EPOCH":"2026-01-17T07:03:14.059872","MEAN_MOTION":13.19724308,"ECCENTRICITY":0.00013928,"INCLINATION":87.9224,"RA_OF_ASC_NODE":335.0179,"ARG_OF_PERICENTER":78.4118,"MEAN_ANOMALY":281.7171,"EPHEMERIS_TYPE":0,"CLASSIFICATION_TYPE":"U","NORAD_CAT_ID":55808,"ELEMENT_SET_NO":999,"REV_AT_EPOCH":13900,"BSTAR":0.00020489224,"MEAN_MOTION_DOT":9.5e-7,"MEAN_MOTION_DDOT":0},{"OBJECT_NAME":"ONEWEB-0645","OBJECT_ID":"2023-029P","EPOCH":"2026-01-17T09:24:15.480576","MEAN_MOTION":13.197266,"ECCENTRICITY":0.0001521,"INCLINATION":87.9221,"RA_OF_ASC_NODE":334.9912,"ARG_OF_PERICENTER":62.585,"MEAN_ANOMALY":297.5438,"EPHEMERIS_TYPE":0,"CLASSIFICATION_TYPE":"U","NORAD_CAT_ID":55809,"ELEMENT_SET_NO":999,"REV_AT_EPOCH":13901,"BSTAR":-1.265781e-6,"MEAN_MOTION_DOT":1.2e-7,"MEAN_MOTION_DDOT":0},{"OBJECT_NAME":"ONEWEB-0646","OBJECT_ID":"2023-029Q","EPOCH":"2026-01-17T15:16:48.236160","MEAN_MOTION":13.19727117,"ECCENTRICITY":0.00014644,"INCLINATION":87.9233,"RA_OF_ASC_NODE":334.938,"ARG_OF_PERICENTER":78.5745,"MEAN_ANOMALY":281.5552,"EPHEMERIS_TYPE":0,"CLASSIFICATION_TYPE":"U","NORAD_CAT_ID":55810,"ELEMENT_SET_NO":999,"REV_AT_EPOCH":13903,"BSTAR":-5.820266e-5,"MEAN_MOTION_DOT":-1.0e-7,"MEAN_MOTION_DDOT":0},{"OBJECT_NAME":"ONEWEB-0648","OBJECT_ID":"2023-029R","EPOCH":"2026-01-17T13:14:00.762144","MEAN_MOTION":13.14503731,"ECCENTRICITY":0.00012812,"INCLINATION":87.9027,"RA_OF_ASC_NODE":319.7239,"ARG_OF_PERICENTER":44.3659,"MEAN_ANOMALY":315.7573,"EPHEMERIS_TYPE":0,"CLASSIFICATION_TYPE":"U","NORAD_CAT_ID":55811,"ELEMENT_SET_NO":999,"REV_AT_EPOCH":13960,"BSTAR":-0.00078774644,"MEAN_MOTION_DOT":-2.79e-6,"MEAN_MOTION_DDOT":0},{"OBJECT_NAME":"ONEWEB-0649","OBJECT_ID":"2023-029S","EPOCH":"2026-01-17T14:04:01.515360","MEAN_MOTION":13.19725588,"ECCENTRICITY":0.00014514,"INCLINATION":87.9233,"RA_OF_ASC_NODE":334.9446,"ARG_OF_PERICENTER":68.0336,"MEAN_ANOMALY":292.0951,"EPHEMERIS_TYPE":0,"CLASSIFICATION_TYPE":"U","NORAD_CAT_ID":55812,"ELEMENT_SET_NO":999,"REV_AT_EPOCH":13906,"BSTAR":0.00020364559,"MEAN_MOTION_DOT":9.4e-7,"MEAN_MOTION_DDOT":0},{"OBJECT_NAME":"ONEWEB-0650","OBJECT_ID":"2023-029T","EPOCH":"2026-01-17T13:57:11.797920","MEAN_MOTION":13.19726893,"ECCENTRICITY":0.00012992,"INCLINATION":87.923,"RA_OF_ASC_NODE":334.9501,"ARG_OF_PERICENTER":72.5878,"MEAN_ANOMALY":287.5396,"EPHEMERIS_TYPE":0,"CLASSIFICATION_TYPE":"U","NORAD_CAT_ID":55813,"ELEMENT_SET_NO":999,"REV_AT_EPOCH":13903,"BSTAR":9.7410191e-5,"MEAN_MOTION_DOT":5.2e-7,"MEAN_MOTION_DDOT":0},{"OBJECT_NAME":"ONEWEB-0652","OBJECT_ID":"2023-029U","EPOCH":"2026-01-17T12:46:37.783200","MEAN_MOTION":13.14503383,"ECCENTRICITY":0.00018631,"INCLINATION":87.902,"RA_OF_ASC_NODE":319.7464,"ARG_OF_PERICENTER":80.4387,"MEAN_ANOMALY":279.6953,"EPHEMERIS_TYPE":0,"CLASSIFICATION_TYPE":"U","NORAD_CAT_ID":55814,"ELEMENT_SET_NO":999,"REV_AT_EPOCH":13957,"BSTAR":0.00024482818,"MEAN_MOTION_DOT":1.04e-6,"MEAN_MOTION_DDOT":0},{"OBJECT_NAME":"ONEWEB-0653","OBJECT_ID":"2023-029V","EPOCH":"2026-01-17T06:54:58.053888","MEAN_MOTION":13.14502817,"ECCENTRICITY":0.00018841,"INCLINATION":87.9021,"RA_OF_ASC_NODE":319.7843,"ARG_OF_PERICENTER":74.1974,"MEAN_ANOMALY":285.9363,"EPHEMERIS_TYPE":0,"CLASSIFICATION_TYPE":"U","NORAD_CAT_ID":55815,"ELEMENT_SET_NO":999,"REV_AT_EPOCH":13957,"BSTAR":0.00064109202,"MEAN_MOTION_DOT":2.5e-6,"MEAN_MOTION_DDOT":0},{"OBJECT_NAME":"ONEWEB-0654","OBJECT_ID":"2023-029W","EPOCH":"2026-01-17T14:06:33.079104","MEAN_MOTION":13.14503322,"ECCENTRICITY":0.00020605,"INCLINATION":87.9022,"RA_OF_ASC_NODE":319.7247,"ARG_OF_PERICENTER":81.2727,"MEAN_ANOMALY":278.8636,"EPHEMERIS_TYPE":0,"CLASSIFICATION_TYPE":"U","NORAD_CAT_ID":55816,"ELEMENT_SET_NO":999,"REV_AT_EPOCH":13963,"BSTAR":0.00053046613,"MEAN_MOTION_DOT":2.09e-6,"MEAN_MOTION_DDOT":0},{"OBJECT_NAME":"ONEWEB-0656","OBJECT_ID":"2023-029X","EPOCH":"2026-01-17T12:34:19.761312","MEAN_MOTION":13.20771893,"ECCENTRICITY":0.00021112,"INCLINATION":87.9233,"RA_OF_ASC_NODE":304.4853,"ARG_OF_PERICENTER":80.9459,"MEAN_ANOMALY":279.1913,"EPHEMERIS_TYPE":0,"CLASSIFICATION_TYPE":"U","NORAD_CAT_ID":55817,"ELEMENT_SET_NO":999,"REV_AT_EPOCH":14126,"BSTAR":0.00014641989,"MEAN_MOTION_DOT":7.3e-7,"MEAN_MOTION_DDOT":0},{"OBJECT_NAME":"ONEWEB-0657","OBJECT_ID":"2023-029Y","EPOCH":"2026-01-17T13:50:19.971456","MEAN_MOTION":13.19720931,"ECCENTRICITY":0.00019773,"INCLINATION":87.9223,"RA_OF_ASC_NODE":334.9511,"ARG_OF_PERICENTER":101.3579,"MEAN_ANOMALY":258.7776,"EPHEMERIS_TYPE":0,"CLASSIFICATION_TYPE":"U","NORAD_CAT_ID":55818,"ELEMENT_SET_NO":999,"REV_AT_EPOCH":13904,"BSTAR":0.00015849412,"MEAN_MOTION_DOT":7.6e-7,"MEAN_MOTION_DDOT":0},{"OBJECT_NAME":"ONEWEB-0658","OBJECT_ID":"2023-029Z","EPOCH":"2026-01-17T10:05:11.896512","MEAN_MOTION":13.1972559,"ECCENTRICITY":0.00013228,"INCLINATION":87.9241,"RA_OF_ASC_NODE":334.9421,"ARG_OF_PERICENTER":77.7684,"MEAN_ANOMALY":282.3597,"EPHEMERIS_TYPE":0,"CLASSIFICATION_TYPE":"U","NORAD_CAT_ID":55819,"ELEMENT_SET_NO":999,"REV_AT_EPOCH":13903,"BSTAR":3.0350275e-5,"MEAN_MOTION_DOT":2.5e-7,"MEAN_MOTION_DDOT":0},{"OBJECT_NAME":"ONEWEB-0660","OBJECT_ID":"2023-029AA","EPOCH":"2026-01-17T13:34:35.086368","MEAN_MOTION":13.14502819,"ECCENTRICITY":0.00017079,"INCLINATION":87.9032,"RA_OF_ASC_NODE":319.7108,"ARG_OF_PERICENTER":67.3801,"MEAN_ANOMALY":292.7509,"EPHEMERIS_TYPE":0,"CLASSIFICATION_TYPE":"U","NORAD_CAT_ID":55820,"ELEMENT_SET_NO":999,"REV_AT_EPOCH":13961,"BSTAR":-0.00036397645,"MEAN_MOTION_DOT":-1.22e-6,"MEAN_MOTION_DDOT":0},{"OBJECT_NAME":"ONEWEB-0661","OBJECT_ID":"2023-029AB","EPOCH":"2026-01-17T12:35:13.241184","MEAN_MOTION":13.14503336,"ECCENTRICITY":0.00018186,"INCLINATION":87.9021,"RA_OF_ASC_NODE":319.781,"ARG_OF_PERICENTER":66.189,"MEAN_ANOMALY":293.943,"EPHEMERIS_TYPE":0,"CLASSIFICATION_TYPE":"U","NORAD_CAT_ID":55821,"ELEMENT_SET_NO":999,"REV_AT_EPOCH":13959,"BSTAR":0.00067725611,"MEAN_MOTION_DOT":2.64e-6,"MEAN_MOTION_DDOT":0},{"OBJECT_NAME":"ONEWEB-0662","OBJECT_ID":"2023-029AC","EPOCH":"2026-01-17T13:25:25.947840","MEAN_MOTION":13.14504196,"ECCENTRICITY":0.00016805,"INCLINATION":87.902,"RA_OF_ASC_NODE":319.7806,"ARG_OF_PERICENTER":66.6503,"MEAN_ANOMALY":293.4803,"EPHEMERIS_TYPE":0,"CLASSIFICATION_TYPE":"U","NORAD_CAT_ID":55822,"ELEMENT_SET_NO":999,"REV_AT_EPOCH":13964,"BSTAR":-0.00048034129,"MEAN_MOTION_DOT":-1.65e-6,"MEAN_MOTION_DDOT":0}]
