ONEWEB-0642             
1 55806U 23029L   26017.29865434  .00000085  00000+0  17894-3 0  9991
2 55806  87.9230 335.0078 0000940  69.7331 290.3903 13.19725353139001
ONEWEB-0643             
1 55807U 23029M   26017.58311796  .00000126  00000+0  30619-3 0  9997
2 55807  87.9022 319.7550 0001020  82.0466 278.0780 13.14503622139602
ONEWEB-0644             
1 55808U 23029N   26017.29391273  .00000095  00000+0  20489-3 0  9993
2 55808  87.9224 335.0179 0001392  78.4118 281.7171 13.19724308139000
ONEWEB-0645             
1 55809U 23029P   26017.39184584  .00000012  00000+0 -12658-5 0  9991
2 55809  87.9221 334.9912 0001521  62.5850 297.5438 13.19726600139011
ONEWEB-0646             
1 55810U 23029Q   26017.63666940 -.00000010  00000+0 -58203-4 0  9995
2 55810  87.9233 334.9380 0001464  78.5745 281.5552 13.19727117139037
ONEWEB-0648             
1 55811U 23029R   26017.55139771 -.00000279  00000+0 -78775-3 0  9996
2 55811  87.9027 319.7239 0001281  44.3659 315.7573 13.14503731139600
ONEWEB-0649             
1 55812U 23029S   26017.58612865  .00000094  00000+0  20365-3 0  9995
2 55812  87.9233 334.9446 0001451  68.0336 292.0951 13.19725588139061
ONEWEB-0650             
1 55813U 23029T   26017.58138655  .00000052  00000+0  97410-4 0  9996
2 55813  87.9230 334.9501 0001299  72.5878 287.5396 13.19726893139031
ONEWEB-0652             
1 55814U 23029U   26017.53238175  .00000104  00000+0  24483-3 0  9997
2 55814  87.9020 319.7464 0001863  80.4387 279.6953 13.14503383139570
ONEWEB-0653             
1 55815U 23029V   26017.28817192  .00000250  00000+0  64109-3 0  9993
2 55815  87.9021 319.7843 0001884  74.1974 285.9363 13.14502817139574
ONEWEB-0654             
1 55816U 23029W   26017.58788286  .00000209  00000+0  53047-3 0  9991
2 55816  87.9022 319.7247 0002060  81.2727 278.8636 13.14503322139639
ONEWEB-0656             
1 55817U 23029X   26017.52383983  .00000073  00000+0  14642-3 0  9998
2 55817  87.9233 304.4853 0002111  80.9459 279.1913 13.20771893141264
ONEWEB-0657             
1 55818U 23029Y   26017.57662004  .00000076  00000+0  15849-3 0  9991
2 55818  87.9223 334.9511 0001977 101.3579 258.7776 13.19720931139041
ONEWEB-0658             
1 55819U 23029Z   26017.42027658  .00000025  00000+0  30350-4 0  9995
2 55819  87.9241 334.9421 0001322  77.7684 282.3597 13.19725590139038
ONEWEB-0660             
1 55820U 23029AA  26017.56568387 -.00000122  00000+0 -36398-3 0  9998
2 55820  87.9032 319.7108 0001707  67.3801 292.7509 13.14502819139618
ONEWEB-0661             
1 55821U 23029AB  26017.52445881  .00000264  00000+0  67726-3 0  9992
2 55821  87.9021 319.7810 0001818  66.1890 293.9430 13.14503336139593
ONEWEB-0662             
1 55822U 23029AC  26017.55932810 -.00000165  00000+0 -48034-3 0  9992
2 55822  87.9020 319.7806 0001680  66.6503 293.4803 13.14504196139641
